GSAT-10                 
1 38779U 12051B   26073.94151665 -.00000166  00000+0  00000+0 0  9990
2 38779   0.0486 255.6582 0005105 184.8181 154.0262  1.00272342 49159
INTELSAT 23 (IS-23)     
1 38867U 12057A   26073.91456321 -.00000286  00000+0  00000+0 0  9991
2 38867   0.0385 254.8512 0001064 112.3031  81.5708  1.00269430 49006
BEIDOU-2 G6             
1 38953U 12059A   26073.94168999 -.00000174  00000+0  00000+0 0  9999
2 38953   4.1811  74.5274 0010557 306.6784 214.3066  1.00275802 48960
LUCH-5B                 
1 38977U 12061A   26073.70790308 -.00000132  00000+0  00000+0 0  9991
2 38977  10.2796  50.8004 0003215 227.3197 132.7264  1.00271900 48658
YAMAL 300K              
1 38978U 12061B   26073.39084406  .00000070  00000+0  00000+0 0  9992
2 38978   0.0124 224.9852 0000192 304.6757 325.9840  1.00272262 48689
STAR ONE C3             
1 38991U 12062A   26073.91022986 -.00000250  00000+0  00000+0 0  9992
2 38991   0.0481 277.3554 0002268  97.7162  50.1301  1.00272155 48812
EUTELSAT 21B            
1 38992U 12062B   26073.87891848  .00000129  00000+0  00000+0 0  9993
2 38992   0.0689 352.5021 0002920 355.0336 162.9454  1.00269889 48884
MERIDIAN 6              
1 38995U 12063A   26071.90287705  .00000461  00000+0  00000+0 0  9999
2 38995  64.2398   9.0605 7327236 229.0271  40.0827  2.00545295 97572
FREGAT R/B              
1 38996U 12063B   26073.14848212 -.00000660  00000+0  00000+0 0  9996
2 38996  64.5390  10.4928 7310563 230.6516  38.5162  2.00202027 97417
ECHOSTAR 16             
1 39008U 12065A   26072.41535125 -.00000282  00000+0  00000+0 0  9998
2 39008   0.0150 163.4832 0001850 185.0347 270.5512  1.00272577 48686
ZHONGXING-12            
1 39017U 12067A   26073.94238332 -.00000207  00000+0  00000+0 0  9996
2 39017   0.0312 113.0730 0003370 246.0489 240.1832  1.00271895 48565
EUTELSAT 70B            
1 39020U 12069A   26073.89627947 -.00000044  00000+0  00000+0 0  9999
2 39020   0.0642   2.1844 0001956 337.8480 225.6040  1.00271721 48564
YAMAL 402               
1 39022U 12070A   26073.93596997  .00000086  00000+0  00000+0 0  9993
2 39022   1.0203  85.4336 0003972 268.5015 210.4460  1.00271673 48456
BREEZE-M R/B            
1 39023U 12070B   26073.46044586 -.00000133  00000+0  00000+0 0  9998
2 39023  25.6671  57.4983 6359915 161.8602 239.7317  2.09994630101066
SKYNET 5D               
1 39034U 12075A   26073.90183736  .00000099  00000+0  00000+0 0  9995
2 39034   0.0704 359.2685 0003920 356.3010 194.3147  1.00272831 48210
MEXSAT 3                
1 39035U 12075B   26073.90216983 -.00000026  00000+0  00000+0 0  9998
2 39035   0.0098 170.5803 0001349 183.3890  28.4913  1.00272046  6108
TDRS 11                 
1 39070U 13004A   26073.81922947  .00000081  00000+0  00000+0 0  9994
2 39070   3.3828  29.5551 0004201 342.6572 280.8679  1.00266002 45745
