[{"OBJECT_NAME":"GSAT-10","OBJECT_ID":"2012-051B","EPOCH":"2026-03-14T22:35:47.038560","MEAN_MOTION":1.00272342,"ECCENTRICITY":0.00051056,"INCLINATION":0.0486,"RA_OF_ASC_NODE":255.6582,"ARG_OF_PERICENTER":184.8181,"MEAN_ANOMALY":154.0262,"EPHEMERIS_TYPE":0,"CLASSIFICATION_TYPE":"U","NORAD_CAT_ID":38779,"ELEMENT_SET_NO":999,"REV_AT_EPOCH":4915,"BSTAR":0,"MEAN_MOTION_DOT":-1.66e-6,"MEAN_MOTION_DDOT":0},{"OBJECT_NAME":"INTELSAT 23 (IS-23)","OBJECT_ID":"2012-057A","EPOCH":"2026-03-14T21:56:58.261344","MEAN_MOTION":1.0026943,"ECCENTRICITY":0.0001064,"INCLINATION":0.0385,"RA_OF_ASC_NODE":254.8512,"ARG_OF_PERICENTER":112.3031,"MEAN_ANOMALY":81.5708,"EPHEMERIS_TYPE":0,"CLASSIFICATION_TYPE":"U","NORAD_CAT_ID":38867,"ELEMENT_SET_NO":999,"REV_AT_EPOCH":4900,"BSTAR":0,"MEAN_MOTION_DOT":-2.86e-6,"MEAN_MOTION_DDOT":0},{"OBJECT_NAME":"BEIDOU-2 G6","OBJECT_ID":"2012-059A","EPOCH":"2026-03-14T22:36:02.015136","MEAN_MOTION":1.00275802,"ECCENTRICITY":0.00105572,"INCLINATION":4.1811,"RA_OF_ASC_NODE":74.5274,"ARG_OF_PERICENTER":306.6784,"MEAN_ANOMALY":214.3066,"EPHEMERIS_TYPE":0,"CLASSIFICATION_TYPE":"U","NORAD_CAT_ID":38953,"ELEMENT_SET_NO":999,"REV_AT_EPOCH":4896,"BSTAR":0,"MEAN_MOTION_DOT":-1.74e-6,"MEAN_MOTION_DDOT":0},{"OBJECT_NAME":"LUCH-5B","OBJECT_ID":"2012-061A","EPOCH":"2026-03-14T16:59:22.826112","MEAN_MOTION":1.002719,"ECCENTRICITY":0.0003215,"INCLINATION":10.2796,"RA_OF_ASC_NODE":50.8004,"ARG_OF_PERICENTER":227.3197,"MEAN_ANOMALY":132.7264,"EPHEMERIS_TYPE":0,"CLASSIFICATION_TYPE":"U","NORAD_CAT_ID":38977,"ELEMENT_SET_NO":999,"REV_AT_EPOCH":4865,"BSTAR":0,"MEAN_MOTION_DOT":-1.32e-6,"MEAN_MOTION_DDOT":0},{"OBJECT_NAME":"YAMAL 300K","OBJECT_ID":"2012-061B","EPOCH":"2026-03-14T09:22:48.926784","MEAN_MOTION":1.00272262,"ECCENTRICITY":1.929e-5,"INCLINATION":0.0124,"RA_OF_ASC_NODE":224.9852,"ARG_OF_PERICENTER":304.6757,"MEAN_ANOMALY":325.984,"EPHEMERIS_TYPE":0,"CLASSIFICATION_TYPE":"U","NORAD_CAT_ID":38978,"ELEMENT_SET_NO":999,"REV_AT_EPOCH":4868,"BSTAR":0,"MEAN_MOTION_DOT":7.0e-7,"MEAN_MOTION_DDOT":0},{"OBJECT_NAME":"STAR ONE C3","OBJECT_ID":"2012-062A","EPOCH":"2026-03-14T21:50:43.859904","MEAN_MOTION":1.00272155,"ECCENTRICITY":0.0002268,"INCLINATION":0.0481,"RA_OF_ASC_NODE":277.3554,"ARG_OF_PERICENTER":97.7162,"MEAN_ANOMALY":50.1301,"EPHEMERIS_TYPE":0,"CLASSIFICATION_TYPE":"U","NORAD_CAT_ID":38991,"ELEMENT_SET_NO":999,"REV_AT_EPOCH":4881,"BSTAR":0,"MEAN_MOTION_DOT":-2.5e-6,"MEAN_MOTION_DDOT":0},{"OBJECT_NAME":"EUTELSAT 21B","OBJECT_ID":"2012-062B","EPOCH":"2026-03-14T21:05:38.556672","MEAN_MOTION":1.00269889,"ECCENTRICITY":0.000292,"INCLINATION":0.0689,"RA_OF_ASC_NODE":352.5021,"ARG_OF_PERICENTER":355.0336,"MEAN_ANOMALY":162.9454,"EPHEMERIS_TYPE":0,"CLASSIFICATION_TYPE":"U","NORAD_CAT_ID":38992,"ELEMENT_SET_NO":999,"REV_AT_EPOCH":4888,"BSTAR":0,"MEAN_MOTION_DOT":1.29e-6,"MEAN_MOTION_DDOT":0},{"OBJECT_NAME":"MERIDIAN 6","OBJECT_ID":"2012-063A","EPOCH":"2026-03-12T21:40:08.577120","MEAN_MOTION":2.00545295,"ECCENTRICITY":0.73272368,"INCLINATION":64.2398,"RA_OF_ASC_NODE":9.0605,"ARG_OF_PERICENTER":229.0271,"MEAN_ANOMALY":40.0827,"EPHEMERIS_TYPE":0,"CLASSIFICATION_TYPE":"U","NORAD_CAT_ID":38995,"ELEMENT_SET_NO":999,"REV_AT_EPOCH":9757,"BSTAR":0,"MEAN_MOTION_DOT":4.61e-6,"MEAN_MOTION_DDOT":0},{"OBJECT_NAME":"FREGAT R/B","OBJECT_ID":"2012-063B","EPOCH":"2026-03-14T03:33:48.855168","MEAN_MOTION":2.00202027,"ECCENTRICITY":0.73105632,"INCLINATION":64.539,"RA_OF_ASC_NODE":10.4928,"ARG_OF_PERICENTER":230.6516,"MEAN_ANOMALY":38.5162,"EPHEMERIS_TYPE":0,"CLASSIFICATION_TYPE":"U","NORAD_CAT_ID":38996,"ELEMENT_SET_NO":999,"REV_AT_EPOCH":9741,"BSTAR":0,"MEAN_MOTION_DOT":-6.6e-6,"MEAN_MOTION_DDOT":0},{"OBJECT_NAME":"ECHOSTAR 16","OBJECT_ID":"2012-065A","EPOCH":"2026-03-13T09:58:06.348000","MEAN_MOTION":1.00272577,"ECCENTRICITY":0.00018507,"INCLINATION":0.015,"RA_OF_ASC_NODE":163.4832,"ARG_OF_PERICENTER":185.0347,"MEAN_ANOMALY":270.5512,"EPHEMERIS_TYPE":0,"CLASSIFICATION_TYPE":"U","NORAD_CAT_ID":39008,"ELEMENT_SET_NO":999,"REV_AT_EPOCH":4868,"BSTAR":0,"MEAN_MOTION_DOT":-2.82e-6,"MEAN_MOTION_DDOT":0},{"OBJECT_NAME":"ZHONGXING-12","OBJECT_ID":"2012-067A","EPOCH":"2026-03-14T22:37:01.918848","MEAN_MOTION":1.00271895,"ECCENTRICITY":0.00033702,"INCLINATION":0.0312,"RA_OF_ASC_NODE":113.073,"ARG_OF_PERICENTER":246.0489,"MEAN_ANOMALY":240.1832,"EPHEMERIS_TYPE":0,"CLASSIFICATION_TYPE":"U","NORAD_CAT_ID":39017,"ELEMENT_SET_NO":999,"REV_AT_EPOCH":4856,"BSTAR":0,"MEAN_MOTION_DOT":-2.07e-6,"MEAN_MOTION_DDOT":0},{"OBJECT_NAME":"EUTELSAT 70B","OBJECT_ID":"2012-069A","EPOCH":"2026-03-14T21:30:38.546208","MEAN_MOTION":1.00271721,"ECCENTRICITY":0.00019561,"INCLINATION":0.0642,"RA_OF_ASC_NODE":2.1844,"ARG_OF_PERICENTER":337.848,"MEAN_ANOMALY":225.604,"EPHEMERIS_TYPE":0,"CLASSIFICATION_TYPE":"U","NORAD_CAT_ID":39020,"ELEMENT_SET_NO":999,"REV_AT_EPOCH":4856,"BSTAR":0,"MEAN_MOTION_DOT":-4.4e-7,"MEAN_MOTION_DDOT":0},{"OBJECT_NAME":"YAMAL 402","OBJECT_ID":"2012-070A","EPOCH":"2026-03-14T22:27:47.805408","MEAN_MOTION":1.00271673,"ECCENTRICITY":0.0003972,"INCLINATION":1.0203,"RA_OF_ASC_NODE":85.4336,"ARG_OF_PERICENTER":268.5015,"MEAN_ANOMALY":210.446,"EPHEMERIS_TYPE":0,"CLASSIFICATION_TYPE":"U","NORAD_CAT_ID":39022,"ELEMENT_SET_NO":999,"REV_AT_EPOCH":4845,"BSTAR":0,"MEAN_MOTION_DOT":8.6e-7,"MEAN_MOTION_DDOT":0},{"OBJECT_NAME":"BREEZE-M R/B","OBJECT_ID":"2012-070B","EPOCH":"2026-03-14T11:03:02.522304","MEAN_MOTION":2.0999463,"ECCENTRICITY":0.63599156,"INCLINATION":25.6671,"RA_OF_ASC_NODE":57.4983,"ARG_OF_PERICENTER":161.8602,"MEAN_ANOMALY":239.7317,"EPHEMERIS_TYPE":0,"CLASSIFICATION_TYPE":"U","NORAD_CAT_ID":39023,"ELEMENT_SET_NO":999,"REV_AT_EPOCH":10106,"BSTAR":0,"MEAN_MOTION_DOT":-1.33e-6,"MEAN_MOTION_DDOT":0},{"OBJECT_NAME":"SKYNET 5D","OBJECT_ID":"2012-075A","EPOCH":"2026-03-14T21:38:38.747904","MEAN_MOTION":1.00272831,"ECCENTRICITY":0.00039203,"INCLINATION":0.0704,"RA_OF_ASC_NODE":359.2685,"ARG_OF_PERICENTER":356.301,"MEAN_ANOMALY":194.3147,"EPHEMERIS_TYPE":0,"CLASSIFICATION_TYPE":"U","NORAD_CAT_ID":39034,"ELEMENT_SET_NO":999,"REV_AT_EPOCH":4821,"BSTAR":0,"MEAN_MOTION_DOT":9.9e-7,"MEAN_MOTION_DDOT":0},{"OBJECT_NAME":"MEXSAT 3","OBJECT_ID":"2012-075B","EPOCH":"2026-03-14T21:39:07.473312","MEAN_MOTION":1.00272046,"ECCENTRICITY":0.0001349,"INCLINATION":0.0098,"RA_OF_ASC_NODE":170.5803,"ARG_OF_PERICENTER":183.389,"MEAN_ANOMALY":28.4913,"EPHEMERIS_TYPE":0,"CLASSIFICATION_TYPE":"U","NORAD_CAT_ID":39035,"ELEMENT_SET_NO":999,"REV_AT_EPOCH":610,"BSTAR":0,"MEAN_MOTION_DOT":-2.6e-7,"MEAN_MOTION_DDOT":0},{"OBJECT_NAME":"TDRS 11","OBJECT_ID":"2013-004A","EPOCH":"2026-03-14T19:39:41.426208","MEAN_MOTION":1.00266002,"ECCENTRICITY":0.00042015,"INCLINATION":3.3828,"RA_OF_ASC_NODE":29.5551,"ARG_OF_PERICENTER":342.6572,"MEAN_ANOMALY":280.8679,"EPHEMERIS_TYPE":0,"CLASSIFICATION_TYPE":"U","NORAD_CAT_ID":39070,"ELEMENT_SET_NO":999,"REV_AT_EPOCH":4574,"BSTAR":0,"MEAN_MOTION_DOT":8.1e-7,"MEAN_MOTION_DDOT":0}]
